[{"OBJECT_NAME":"TIANMU-1 07","OBJECT_ID":"2023-101A","EPOCH":"2026-03-06T13:47:20.454720","MEAN_MOTION":15.29118809,"ECCENTRICITY":0.00046097,"INCLINATION":97.2728,"RA_OF_ASC_NODE":118.5929,"ARG_OF_PERICENTER":142.4105,"MEAN_ANOMALY":217.7458,"EPHEMERIS_TYPE":0,"CLASSIFICATION_TYPE":"U","NORAD_CAT_ID":57399,"ELEMENT_SET_NO":999,"REV_AT_EPOCH":14596,"BSTAR":0.00029794732,"MEAN_MOTION_DOT":8.352e-5,"MEAN_MOTION_DDOT":0},{"OBJECT_NAME":"STARLINK-34854","OBJECT_ID":"2025-189Q","EPOCH":"2026-03-09T15:45:56.909952","MEAN_MOTION":15.30209757,"ECCENTRICITY":0.00012288,"INCLINATION":53.1582,"RA_OF_ASC_NODE":206.7591,"ARG_OF_PERICENTER":92.5483,"MEAN_ANOMALY":267.5658,"EPHEMERIS_TYPE":0,"CLASSIFICATION_TYPE":"U","NORAD_CAT_ID":65337,"ELEMENT_SET_NO":999,"REV_AT_EPOCH":3104,"BSTAR":0.0010271719,"MEAN_MOTION_DOT":0.00030196,"MEAN_MOTION_DDOT":0}]
